STARLINK-2742
1 28688C 21044BC  21325.19912899  .00008464  00000-0  56712-3 0  3255
2 28688  53.0540 272.3205 0002775  53.8524  27.8515 15.06387734    15
